OBJECT_NAME,OBJECT_ID,EPOCH,MEAN_MOTION,ECCENTRICITY,INCLINATION,RA_OF_ASC_NODE,ARG_OF_PERICENTER,MEAN_ANOMALY,EPHEMERIS_TYPE,CLASSIFICATION_TYPE,NORAD_CAT_ID,ELEMENT_SET_NO,REV_AT_EPOCH,BSTAR,MEAN_MOTION_DOT,MEAN_MOTION_DDOT
INTELSAT 23 (IS-23),2012-057A,2026-07-21T11:07:05.765088,1.00269807,.00002056,0.0330,271.1664,281.9348,219.8942,0,U,38867,999,5029,0,-.283E-5,0
BEIDOU-2 G6,2012-059A,2026-07-21T15:11:28.143168,1.00273137,.00089541,4.5067,73.1510,328.7589,209.3728,0,U,38953,999,5025,0,-.177E-5,0
LUCH-5B,2012-061A,2026-07-21T09:34:44.254848,1.00271106,.0003896,10.5558,49.5380,142.5717,234.4338,0,U,38977,999,4995,0,-.143E-5,0
YAMAL 300K,2012-061B,2026-07-21T13:57:01.022976,1.00270476,.00000856,0.0053,206.8930,259.7326,224.9111,0,U,38978,999,4997,0,.73E-6,0
STAR ONE C3,2012-062A,2026-07-21T12:43:25.339296,1.00272148,.00024152,0.0141,74.5767,51.4048,289.1790,0,U,38991,999,5010,0,-.248E-5,0
EUTELSAT 21B,2012-062B,2026-07-21T14:53:40.590816,1.00274031,.00032418,0.0671,348.2366,140.2639,55.8739,0,U,38992,999,5017,0,.132E-5,0
ECHOSTAR 16,2012-065A,2026-07-21T12:47:17.467584,1.00271050,.00020856,0.0160,54.6985,61.0685,313.8445,0,U,39008,999,4998,0,-.28E-5,0
ZHONGXING-12,2012-067A,2026-07-21T16:55:10.105248,1.00272715,.0002904,0.0166,113.7426,3.5165,163.4855,0,U,39017,999,4985,0,-.205E-5,0
EUTELSAT 70B,2012-069A,2026-07-21T15:07:36.014016,1.00273855,.00035172,0.0639,344.4558,138.9151,113.4201,0,U,39020,999,4985,0,-.42E-6,0
YAMAL 402,2012-070A,2026-07-20T04:49:52.300992,1.00272347,.00037775,1.3474,83.7507,28.3484,313.2334,0,U,39022,999,4972,0,.83E-6,0
SKYNET 5D,2012-075A,2026-07-21T09:54:27.363744,1.00273381,.00036992,0.0691,10.7231,116.3631,13.4461,0,U,39034,999,4950,0,.1E-5,0
MEXSAT 3,2012-075B,2026-07-21T14:14:44.323584,1.00271734,.00012445,0.0153,74.0031,40.1267,284.0959,0,U,39035,999,739,0,-.24E-6,0
TDRS 11,2013-004A,2026-07-21T13:10:46.449408,1.00265406,.00052564,3.5710,31.7884,30.3333,260.6567,0,U,39070,999,4703,0,.79E-6,0
AMAZONAS 3,2013-006A,2026-07-21T12:47:24.955872,1.00270527,.00035433,0.0594,240.5426,271.5575,278.0339,0,U,39078,999,4525,0,-.281E-5,0
AZERSPACE 1,2013-006B,2026-07-21T15:00:36.683712,1.00271989,.00021572,0.0398,257.1738,249.3421,63.9971,0,U,39079,999,4915,0,.135E-5,0
SBIRS GEO-2 (USA 241),2013-011A,2026-07-21T09:25:22.652256,1.00270936,.00018127,4.5607,52.5009,69.7921,268.4043,0,U,39120,999,4887,0,-.288E-5,0
EUTELSAT 117 WEST A,2013-012A,2026-07-21T14:14:14.372160,1.00271854,.00029376,0.0345,286.8788,191.7922,277.4256,0,U,39122,999,4877,0,-.11E-6,0
ANIK G1,2013-014A,2026-07-21T14:16:51.621024,1.00272428,.00019647,0.0106,16.1199,109.7636,280.3801,0,U,39127,999,4859,0,-.72E-6,0
ZHONGXING-11,2013-020A,2026-07-21T16:11:40.039008,1.00273119,.00023489,0.0403,274.6006,165.4264,200.2216,0,U,39157,999,4824,0,-.289E-5,0
EUTELSAT 7B,2013-022A,2026-07-21T14:49:33.485952,1.00271840,.00032172,0.0656,351.2440,60.4602,117.0413,0,U,39163,999,4829,0,.5E-6,0
WGS F5 (USA 243),2013-024A,2026-07-21T12:49:54.717312,1.00269649,.00002442,0.0214,60.6697,72.7170,305.8945,0,U,39168,999,4751,0,0,0
SES-6,2013-026A,2026-07-21T11:10:27.941952,1.00271593,.00027551,0.0158,18.8424,81.6937,325.8111,0,U,39172,999,4806,0,-.26E-5,0
IRNSS-1A,2013-034A,2026-07-21T04:47:08.434752,1.00271492,.00186752,35.7933,63.3827,179.4943,182.8995,0,U,39199,999,4771,0,.51E-6,0
MUOS-2,2013-036A,2026-07-21T09:05:38.715648,1.00273434,.00532132,5.0614,45.5544,176.4142,25.5590,0,U,39206,999,4753,0,-.15E-6,0
ALPHASAT,2013-038A,2026-07-21T08:03:56.040192,1.00272992,.00026308,2.9994,1.1035,138.6991,305.1526,0,U,39215,999,4436,0,.134E-5,0
INSAT-3D,2013-038B,2026-07-21T15:24:27.682848,1.00273337,.00010879,2.0128,82.1066,43.7513,174.1578,0,U,39216,999,4742,0,-.339E-5,0
WGS F6 (USA 244),2013-041A,2026-07-21T09:01:02.485344,1.00272013,.00003577,0.0178,61.7304,30.8742,206.5929,0,U,39222,999,4640,0,.9E-6,0
ES'HAIL 1,2013-044A,2026-07-21T14:54:47.983680,1.00271809,.00024229,0.0475,4.3660,106.9364,77.2567,0,U,39233,999,4697,0,.145E-5,0
GSAT-7,2013-044B,2026-07-21T15:08:35.917728,1.00272388,.00029826,0.1670,89.4294,173.6651,337.3991,0,U,39234,999,4560,0,-.75E-6,0
AMOS-4,2013-045A,2026-07-21T15:05:58.668864,1.00271882,.00019681,0.0062,211.3654,238.6154,140.8896,0,U,39237,999,4730,0,.9E-7,0
AEHF-3 (USA 246),2013-050A,2026-07-21T14:12:22.052160,1.00272648,.00887313,5.3758,66.8643,187.7229,133.5794,0,U,39256,999,4599,0,.27E-6,0
ASTRA 2E,2013-056A,2026-07-21T14:55:40.399968,1.00272084,.00025551,0.0667,324.0780,153.3557,74.3163,0,U,39285,999,4676,0,.152E-5,0
