INTELSAT 23 (IS-23)     
1 38867U 12057A   26202.46326117 -.00000283  00000+0  00000+0 0  9991
2 38867   0.0330 271.1664 0000205 281.9348 219.8942  1.00269807 50293
BEIDOU-2 G6             
1 38953U 12059A   26202.63296462 -.00000177  00000+0  00000+0 0  9999
2 38953   4.5067  73.1510 0008954 328.7589 209.3728  1.00273137 50254
LUCH-5B                 
1 38977U 12061A   26202.39912332 -.00000143  00000+0  00000+0 0  9995
2 38977  10.5558  49.5380 0003896 142.5717 234.4338  1.00271106 49954
YAMAL 300K              
1 38978U 12061B   26202.58126184  .00000073  00000+0  00000+0 0  9990
2 38978   0.0053 206.8930 0000085 259.7326 224.9111  1.00270476 49976
STAR ONE C3             
1 38991U 12062A   26202.53015439 -.00000248  00000+0  00000+0 0  9996
2 38991   0.0141  74.5767 0002415  51.4048 289.1790  1.00272148 50105
EUTELSAT 21B            
1 38992U 12062B   26202.62060869  .00000132  00000+0  00000+0 0  9995
2 38992   0.0671 348.2366 0003241 140.2639  55.8739  1.00274031 50172
ECHOSTAR 16             
1 39008U 12065A   26202.53284106 -.00000280  00000+0  00000+0 0  9994
2 39008   0.0160  54.6985 0002085  61.0685 313.8445  1.00271050 49981
ZHONGXING-12            
1 39017U 12067A   26202.70497807 -.00000205  00000+0  00000+0 0  9996
2 39017   0.0166 113.7426 0002904   3.5165 163.4855  1.00272715 49857
EUTELSAT 70B            
1 39020U 12069A   26202.63027794 -.00000042  00000+0  00000+0 0  9997
2 39020   0.0639 344.4558 0003517 138.9151 113.4201  1.00273855 49850
YAMAL 402               
1 39022U 12070A   26201.20129978  .00000083  00000+0  00000+0 0  9994
2 39022   1.3474  83.7507 0003777  28.3484 313.2334  1.00272347 49727
SKYNET 5D               
1 39034U 12075A   26202.41281671  .00000100  00000+0  00000+0 0  9995
2 39034   0.0691  10.7231 0003699 116.3631  13.4461  1.00273381 49501
MEXSAT 3                
1 39035U 12075B   26202.59356856 -.00000024  00000+0  00000+0 0  9999
2 39035   0.0153  74.0031 0001244  40.1267 284.0959  1.00271734  7398
TDRS 11                 
1 39070U 13004A   26202.54914872  .00000079  00000+0  00000+0 0  9993
2 39070   3.5710  31.7884 0005256  30.3333 260.6567  1.00265406 47031
AMAZONAS 3              
1 39078U 13006A   26202.53292773 -.00000281  00000+0  00000+0 0  9997
2 39078   0.0594 240.5426 0003543 271.5575 278.0339  1.00270527 45259
AZERSPACE 1             
1 39079U 13006B   26202.62542458  .00000135  00000+0  00000+0 0  9993
2 39079   0.0398 257.1738 0002157 249.3421  63.9971  1.00271989 49154
SBIRS GEO-2 (USA 241)   
1 39120U 13011A   26202.39262329 -.00000288  00000+0  00000+0 0  9996
2 39120   4.5607  52.5009 0001812  69.7921 268.4043  1.00270936 48878
EUTELSAT 117 WEST A     
1 39122U 13012A   26202.59322190 -.00000011  00000+0  00000+0 0  9998
2 39122   0.0345 286.8788 0002937 191.7922 277.4256  1.00271854 48777
ANIK G1                 
1 39127U 13014A   26202.59504191 -.00000072  00000+0  00000+0 0  9995
2 39127   0.0106  16.1199 0001964 109.7636 280.3801  1.00272428 48594
ZHONGXING-11            
1 39157U 13020A   26202.67476897 -.00000289  00000+0  00000+0 0  9995
2 39157   0.0403 274.6006 0002348 165.4264 200.2216  1.00273119 48249
EUTELSAT 7B             
1 39163U 13022A   26202.61774868  .00000050  00000+0  00000+0 0  9992
2 39163   0.0656 351.2440 0003217  60.4602 117.0413  1.00271840 48294
WGS F5 (USA 243)        
1 39168U 13024A   26202.53466108  .00000000  00000+0  00000+0 0  9990
2 39168   0.0214  60.6697 0000244  72.7170 305.8945  1.00269649 47512
SES-6                   
1 39172U 13026A   26202.46560118 -.00000260  00000+0  00000+0 0  9994
2 39172   0.0158  18.8424 0002755  81.6937 325.8111  1.00271593 48065
IRNSS-1A                
1 39199U 13034A   26202.19940318  .00000051  00000+0  00000+0 0  9993
2 39199  35.7933  63.3827 0018675 179.4943 182.8995  1.00271492 47713
MUOS-2                  
1 39206U 13036A   26202.37892032 -.00000015  00000+0  00000+0 0  9994
2 39206   5.0614  45.5544 0053213 176.4142  25.5590  1.00273434 47533
ALPHASAT                
1 39215U 13038A   26202.33606528  .00000134  00000+0  00000+0 0  9996
2 39215   2.9994   1.1035 0002630 138.6991 305.1526  1.00272992 44364
INSAT-3D                
1 39216U 13038B   26202.64198707 -.00000339  00000+0  00000+0 0  9994
2 39216   2.0128  82.1066 0001087  43.7513 174.1578  1.00273337 47424
WGS F6 (USA 244)        
1 39222U 13041A   26202.37572321  .00000090  00000+0  00000+0 0  9996
2 39222   0.0178  61.7304 0000357  30.8742 206.5929  1.00272013 46409
ES'HAIL 1               
1 39233U 13044A   26202.62138870  .00000145  00000+0  00000+0 0  9997
2 39233   0.0475   4.3660 0002422 106.9364  77.2567  1.00271809 46974
GSAT-7                  
1 39234U 13044B   26202.63097127 -.00000075  00000+0  00000+0 0  9991
2 39234   0.1670  89.4294 0002982 173.6651 337.3991  1.00272388 45604
AMOS-4                  
1 39237U 13045A   26202.62915126  .00000009  00000+0  00000+0 0  9998
2 39237   0.0062 211.3654 0001968 238.6154 140.8896  1.00271882 47308
AEHF-3 (USA 246)        
1 39256U 13050A   26202.59192190  .00000027  00000+0  00000+0 0  9999
2 39256   5.3758  66.8643 0088731 187.7229 133.5794  1.00272648 45990
ASTRA 2E                
1 39285U 13056A   26202.62199537  .00000152  00000+0  00000+0 0  9992
2 39285   0.0667 324.0780 0002555 153.3557  74.3163  1.00272084 46769
